IRIDIUM 106             
1 41917U 17003A   25158.85715746 -.00000001  00000+0 -72541-5 0  9993
2 41917  86.3978 244.9001 0002551  86.1333 274.0154 14.34217327439555
IRIDIUM 103             
1 41918U 17003B   25159.19331523  .00000215  00000+0  69850-4 0  9992
2 41918  86.3977 244.6604 0002768 103.0226 257.1279 14.34217985439630
IRIDIUM 109             
1 41919U 17003C   25158.71127215  .00000254  00000+0  83664-4 0  9993
2 41919  86.3978 244.9150 0002268 100.0040 260.1411 14.34216486439522
IRIDIUM 102             
1 41920U 17003D   25159.16794328  .00000151  00000+0  46952-4 0  9995
2 41920  86.3976 244.6558 0002135  96.0105 264.1334 14.34218011439670
IRIDIUM 105             
1 41921U 17003E   25159.13867623  .00000265  00000+0  87580-4 0  9990
2 41921  86.3998 213.1319 0002485  97.2824 262.8654 14.34216356441527
IRIDIUM 104             
1 41922U 17003F   25158.69224850  .00000251  00000+0  82619-4 0  9993
2 41922  86.3977 244.8914 0002310 106.6499 253.4951 14.34217813439596
IRIDIUM 114             
1 41923U 17003G   25159.18697295 -.00000043  00000+0 -22281-4 0  9996
2 41923  86.3979 244.6696 0002511  98.0092 262.1388 14.34216936439664
IRIDIUM 108             
1 41924U 17003H   25159.14549223  .00000047  00000+0  95642-5 0  9994
2 41924  86.3993 213.0312 0002370  88.1304 272.0164 14.34217806441511
